{
  "type": "FeatureCollection",
  "features": [
    {
      "type": "Feature",
      "properties": {
        "norad_id": 35825,
        "name": "COSMOS 2251 DEB",
        "group": "cosmos-2251-debris",
        "lat": 51.40179825541561,
        "lon": -78.06449608529395,
        "alt_km": 982.6744144914292,
        "timestamp": "2025-12-24T18:55:56.468628+00:00",
        "meta_object_name": "COSMOS 2251 DEB",
        "meta_object_id": "1993-036ASX",
        "meta_epoch": "2025-12-14T02:36:29.406816",
        "meta_mean_motion": 13.70963524,
        "meta_eccentricity": 0.03526119,
        "meta_inclination": 74.113,
        "meta_ra_of_asc_node": 140.3902,
        "meta_arg_of_pericenter": 235.9093,
        "meta_mean_anomaly": 120.8102,
        "meta_ephemeris_type": 0,
        "meta_classification_type": "U",
        "meta_norad_cat_id": 35825,
        "meta_element_set_no": 999,
        "meta_rev_at_epoch": 82527,
        "meta_bstar": 0.0023333684,
        "meta_mean_motion_dot": 3.214e-05,
        "meta_mean_motion_ddot": 0,
        "tle_line1": "1 35825U 93036ASX 25348.10867369  .00003214  00000+0  23334-2 0  9992",
        "tle_line2": "2 35825  74.1130 140.3902 0352611 235.9093 120.8102 13.70963524825277"
      },
      "geometry": {
        "type": "Point",
        "coordinates": [
          -78.06449608529395,
          51.40179825541561
        ]
      }
    },
    {
      "type": "Feature",
      "properties": {
        "norad_id": 35829,
        "name": "COSMOS 2251 DEB",
        "group": "cosmos-2251-debris",
        "lat": -72.56099863082396,
        "lon": -39.0274670579526,
        "alt_km": 649.8597697436198,
        "timestamp": "2025-12-24T18:55:56.468639+00:00",
        "meta_object_name": "COSMOS 2251 DEB",
        "meta_object_id": "1993-036ATB",
        "meta_epoch": "2025-12-17T00:21:46.598688",
        "meta_mean_motion": 14.76400839,
        "meta_eccentricity": 0.0005573,
        "meta_inclination": 74.0249,
        "meta_ra_of_asc_node": 90.4281,
        "meta_arg_of_pericenter": 146.0686,
        "meta_mean_anomaly": 214.0846,
        "meta_ephemeris_type": 0,
        "meta_classification_type": "U",
        "meta_norad_cat_id": 35829,
        "meta_element_set_no": 999,
        "meta_rev_at_epoch": 87838,
        "meta_bstar": 0.001494418,
        "meta_mean_motion_dot": 0.00010373,
        "meta_mean_motion_ddot": 0,
        "tle_line1": "1 35829U 93036ATB 25351.01512267  .00010373  00000+0  14944-2 0  9995",
        "tle_line2": "2 35829  74.0249  90.4281 0005573 146.0686 214.0846 14.76400839878381"
      },
      "geometry": {
        "type": "Point",
        "coordinates": [
          -39.0274670579526,
          -72.56099863082396
        ]
      }
    },
    {
      "type": "Feature",
      "properties": {
        "norad_id": 35830,
        "name": "COSMOS 2251 DEB",
        "group": "cosmos-2251-debris",
        "lat": 73.53471523703426,
        "lon": -13.883741509941903,
        "alt_km": 842.8863083753149,
        "timestamp": "2025-12-24T18:55:56.468649+00:00",
        "meta_object_name": "COSMOS 2251 DEB",
        "meta_object_id": "1993-036ATC",
        "meta_epoch": "2025-12-23T10:27:10.388160",
        "meta_mean_motion": 14.24048968,
        "meta_eccentricity": 0.01209343,
        "meta_inclination": 73.8635,
        "meta_ra_of_asc_node": 246.9709,
        "meta_arg_of_pericenter": 212.9727,
        "meta_mean_anomaly": 146.3837,
        "meta_ephemeris_type": 0,
        "meta_classification_type": "U",
        "meta_norad_cat_id": 35830,
        "meta_element_set_no": 999,
        "meta_rev_at_epoch": 61416,
        "meta_bstar": 0.0011515673,
        "meta_mean_motion_dot": 2.829e-05,
        "meta_mean_motion_ddot": 0,
        "tle_line1": "1 35830U 93036ATC 25357.43553690  .00002829  00000+0  11516-2 0  9993",
        "tle_line2": "2 35830  73.8635 246.9709 0120934 212.9727 146.3837 14.24048968614165"
      },
      "geometry": {
        "type": "Point",
        "coordinates": [
          -13.883741509941903,
          73.53471523703426
        ]
      }
    },
    {
      "type": "Feature",
      "properties": {
        "norad_id": 35834,
        "name": "COSMOS 2251 DEB",
        "group": "cosmos-2251-debris",
        "lat": 3.9064248556482672,
        "lon": 101.97336879802069,
        "alt_km": 857.7044978997446,
        "timestamp": "2025-12-24T18:55:56.468659+00:00",
        "meta_object_name": "COSMOS 2251 DEB",
        "meta_object_id": "1993-036ATG",
        "meta_epoch": "2025-12-24T01:11:04.288416",
        "meta_mean_motion": 14.12998058,
        "meta_eccentricity": 0.01093967,
        "meta_inclination": 73.9342,
        "meta_ra_of_asc_node": 284.4162,
        "meta_arg_of_pericenter": 81.9337,
        "meta_mean_anomaly": 292.4599,
        "meta_ephemeris_type": 0,
        "meta_classification_type": "U",
        "meta_norad_cat_id": 35834,
        "meta_element_set_no": 999,
        "meta_rev_at_epoch": 66423,
        "meta_bstar": 0.00040260336,
        "meta_mean_motion_dot": 7.7e-06,
        "meta_mean_motion_ddot": 0,
        "tle_line1": "1 35834U 93036ATG 25358.04935519  .00000770  00000+0  40260-3 0  9991",
        "tle_line2": "2 35834  73.9342 284.4162 0109396  81.9337 292.4599 14.12998058664237"
      },
      "geometry": {
        "type": "Point",
        "coordinates": [
          101.97336879802069,
          3.9064248556482672
        ]
      }
    },
    {
      "type": "Feature",
      "properties": {
        "norad_id": 35835,
        "name": "COSMOS 2251 DEB",
        "group": "cosmos-2251-debris",
        "lat": -60.059109591188786,
        "lon": 97.92101832563252,
        "alt_km": 1127.9253647601663,
        "timestamp": "2025-12-24T18:55:56.468669+00:00",
        "meta_object_name": "COSMOS 2251 DEB",
        "meta_object_id": "1993-036ATH",
        "meta_epoch": "2025-12-21T23:46:51.040128",
        "meta_mean_motion": 13.82917227,
        "meta_eccentricity": 0.02911556,
        "meta_inclination": 74.0637,
        "meta_ra_of_asc_node": 252.8841,
        "meta_arg_of_pericenter": 32.3711,
        "meta_mean_anomaly": 329.4908,
        "meta_ephemeris_type": 0,
        "meta_classification_type": "U",
        "meta_norad_cat_id": 35835,
        "meta_element_set_no": 999,
        "meta_rev_at_epoch": 61827,
        "meta_bstar": 0.0013811701,
        "meta_mean_motion_dot": 2.065e-05,
        "meta_mean_motion_ddot": 0,
        "tle_line1": "1 35835U 93036ATH 25355.99086852  .00002065  00000+0  13812-2 0  9991",
        "tle_line2": "2 35835  74.0637 252.8841 0291155  32.3711 329.4908 13.82917227618274"
      },
      "geometry": {
        "type": "Point",
        "coordinates": [
          97.92101832563252,
          -60.059109591188786
        ]
      }
    },
    {
      "type": "Feature",
      "properties": {
        "norad_id": 35836,
        "name": "COSMOS 2251 DEB",
        "group": "cosmos-2251-debris",
        "lat": -31.863965382676962,
        "lon": 139.27731419644178,
        "alt_km": 671.0148740276136,
        "timestamp": "2025-12-24T18:55:56.468680+00:00",
        "meta_object_name": "COSMOS 2251 DEB",
        "meta_object_id": "1993-036ATJ",
        "meta_epoch": "2025-12-23T20:14:10.891104",
        "meta_mean_motion": 14.71217504,
        "meta_eccentricity": 0.0023444,
        "meta_inclination": 74.0324,
        "meta_ra_of_asc_node": 151.3656,
        "meta_arg_of_pericenter": 209.0088,
        "meta_mean_anomaly": 150.9782,
        "meta_ephemeris_type": 0,
        "meta_classification_type": "U",
        "meta_norad_cat_id": 35836,
        "meta_element_set_no": 999,
        "meta_rev_at_epoch": 63683,
        "meta_bstar": 0.0022605,
        "meta_mean_motion_dot": 0.00013996,
        "meta_mean_motion_ddot": 0,
        "tle_line1": "1 35836U 93036ATJ 25357.84318161  .00013996  00000+0  22605-2 0  9994",
        "tle_line2": "2 35836  74.0324 151.3656 0023444 209.0088 150.9782 14.71217504636838"
      },
      "geometry": {
        "type": "Point",
        "coordinates": [
          139.27731419644178,
          -31.863965382676962
        ]
      }
    },
    {
      "type": "Feature",
      "properties": {
        "norad_id": 35837,
        "name": "COSMOS 2251 DEB",
        "group": "cosmos-2251-debris",
        "lat": -73.6985109910761,
        "lon": 100.03514399764167,
        "alt_km": 1329.1710797639698,
        "timestamp": "2025-12-24T18:55:56.468690+00:00",
        "meta_object_name": "COSMOS 2251 DEB",
        "meta_object_id": "1993-036ATK",
        "meta_epoch": "2025-12-23T20:48:22.053024",
        "meta_mean_motion": 13.63560689,
        "meta_eccentricity": 0.0421934,
        "meta_inclination": 73.722,
        "meta_ra_of_asc_node": 189.1152,
        "meta_arg_of_pericenter": 108.1648,
        "meta_mean_anomaly": 317.2477,
        "meta_ephemeris_type": 0,
        "meta_classification_type": "U",
        "meta_norad_cat_id": 35837,
        "meta_element_set_no": 999,
        "meta_rev_at_epoch": 58128,
        "meta_bstar": 0.0035572,
        "meta_mean_motion_dot": 5.124e-05,
        "meta_mean_motion_ddot": 0,
        "tle_line1": "1 35837U 93036ATK 25357.86692191  .00005124  00000+0  35572-2 0  9996",
        "tle_line2": "2 35837  73.7220 189.1152 0421934 108.1648 317.2477 13.63560689581289"
      },
      "geometry": {
        "type": "Point",
        "coordinates": [
          100.03514399764167,
          -73.6985109910761
        ]
      }
    }
  ]
}